{
  "type": "FeatureCollection",
  "features": [
    {
      "type": "Feature",
      "properties": {
        "norad_id": 48859,
        "name": "GPS BIII-5  (PRN 11)",
        "group": "gnss",
        "lat": -25.091120964804876,
        "lon": -39.27114436606448,
        "alt_km": 20192.15259222159,
        "timestamp": "2025-12-18T23:35:49.302493+00:00",
        "meta_object_name": "GPS BIII-5  (PRN 11)",
        "meta_object_id": "2021-054A",
        "meta_epoch": "2025-12-08T04:14:32.423424",
        "meta_mean_motion": 2.00553627,
        "meta_eccentricity": 0.0024678,
        "meta_inclination": 55.2581,
        "meta_ra_of_asc_node": 340.1367,
        "meta_arg_of_pericenter": 233.3994,
        "meta_mean_anomaly": 212.8593,
        "meta_ephemeris_type": 0,
        "meta_classification_type": "U",
        "meta_norad_cat_id": 48859,
        "meta_element_set_no": 999,
        "meta_rev_at_epoch": 3292,
        "meta_bstar": 0,
        "meta_mean_motion_dot": -8.6e-07,
        "meta_mean_motion_ddot": 0,
        "tle_line1": "1 48859U 21054A   25342.17676416 -.00000086  00000+0  00000+0 0  9993",
        "tle_line2": "2 48859  55.2581 340.1367 0024678 233.3994 212.8593  2.00553627 32922"
      },
      "geometry": {
        "type": "Point",
        "coordinates": [
          -39.27114436606448,
          -25.091120964804876
        ]
      }
    },
    {
      "type": "Feature",
      "properties": {
        "norad_id": 49336,
        "name": "QZS-1R (QZSS/PRN 196)",
        "group": "gnss",
        "lat": 28.177756373310473,
        "lon": -142.7913497707206,
        "alt_km": 38225.99460565735,
        "timestamp": "2025-12-18T23:35:49.302505+00:00",
        "meta_object_name": "QZS-1R (QZSS/PRN 196)",
        "meta_object_id": "2021-096A",
        "meta_epoch": "2025-12-18T14:04:25.772160",
        "meta_mean_motion": 1.00255833,
        "meta_eccentricity": 0.07566602,
        "meta_inclination": 37.0895,
        "meta_ra_of_asc_node": 82.273,
        "meta_arg_of_pericenter": 271.433,
        "meta_mean_anomaly": 79.2664,
        "meta_ephemeris_type": 0,
        "meta_classification_type": "U",
        "meta_norad_cat_id": 49336,
        "meta_element_set_no": 999,
        "meta_rev_at_epoch": 1519,
        "meta_bstar": 0,
        "meta_mean_motion_dot": -2.72e-06,
        "meta_mean_motion_ddot": 0,
        "tle_line1": "1 49336U 21096A   25352.58640940 -.00000272  00000+0  00000+0 0  9996",
        "tle_line2": "2 49336  37.0895  82.2730 0756660 271.4330  79.2664  1.00255833 15198"
      },
      "geometry": {
        "type": "Point",
        "coordinates": [
          -142.7913497707206,
          28.177756373310473
        ]
      }
    },
    {
      "type": "Feature",
      "properties": {
        "norad_id": 49809,
        "name": "GSAT0223 (GALILEO 27)",
        "group": "gnss",
        "lat": 36.322893646427154,
        "lon": 14.823441693010563,
        "alt_km": 23228.994079007076,
        "timestamp": "2025-12-18T23:35:49.302521+00:00",
        "meta_object_name": "GSAT0223 (GALILEO 27)",
        "meta_object_id": "2021-116A",
        "meta_epoch": "2025-12-16T20:22:21.643104",
        "meta_mean_motion": 1.70476101,
        "meta_eccentricity": 0.00044272,
        "meta_inclination": 57.2185,
        "meta_ra_of_asc_node": 346.6017,
        "meta_arg_of_pericenter": 254.1798,
        "meta_mean_anomaly": 280.7094,
        "meta_ephemeris_type": 0,
        "meta_classification_type": "U",
        "meta_norad_cat_id": 49809,
        "meta_element_set_no": 999,
        "meta_rev_at_epoch": 2507,
        "meta_bstar": 0,
        "meta_mean_motion_dot": -7.9e-07,
        "meta_mean_motion_ddot": 0,
        "tle_line1": "1 49809U 21116A   25350.84886161 -.00000079  00000+0  00000+0 0  9993",
        "tle_line2": "2 49809  57.2185 346.6017 0004427 254.1798 280.7094  1.70476101 25071"
      },
      "geometry": {
        "type": "Point",
        "coordinates": [
          14.823441693010563,
          36.322893646427154
        ]
      }
    },
    {
      "type": "Feature",
      "properties": {
        "norad_id": 49810,
        "name": "GSAT0224 (GALILEO 28)",
        "group": "gnss",
        "lat": 18.868295777206736,
        "lon": 153.8116497070262,
        "alt_km": 23221.90801746123,
        "timestamp": "2025-12-18T23:35:49.302535+00:00",
        "meta_object_name": "GSAT0224 (GALILEO 28)",
        "meta_object_id": "2021-116B",
        "meta_epoch": "2025-12-18T10:12:29.028672",
        "meta_mean_motion": 1.70476126,
        "meta_eccentricity": 0.00037733,
        "meta_inclination": 57.2191,
        "meta_ra_of_asc_node": 346.558,
        "meta_arg_of_pericenter": 258.3671,
        "meta_mean_anomaly": 276.634,
        "meta_ephemeris_type": 0,
        "meta_classification_type": "U",
        "meta_norad_cat_id": 49810,
        "meta_element_set_no": 999,
        "meta_rev_at_epoch": 2512,
        "meta_bstar": 0,
        "meta_mean_motion_dot": -7.5e-07,
        "meta_mean_motion_ddot": 0,
        "tle_line1": "1 49810U 21116B   25352.42533598 -.00000075  00000+0  00000+0 0  9990",
        "tle_line2": "2 49810  57.2191 346.5580 0003773 258.3671 276.6340  1.70476126 25124"
      },
      "geometry": {
        "type": "Point",
        "coordinates": [
          153.8116497070262,
          18.868295777206736
        ]
      }
    },
    {
      "type": "Feature",
      "properties": {
        "norad_id": 52984,
        "name": "COSMOS 2557 (706K)",
        "group": "gnss",
        "lat": 46.85012980289972,
        "lon": -8.44617868994209,
        "alt_km": 19149.7840014116,
        "timestamp": "2025-12-18T23:35:49.302547+00:00",
        "meta_object_name": "COSMOS 2557 (706K)",
        "meta_object_id": "2022-075A",
        "meta_epoch": "2025-12-17T23:22:55.877376",
        "meta_mean_motion": 2.13101861,
        "meta_eccentricity": 0.00136329,
        "meta_inclination": 64.4068,
        "meta_ra_of_asc_node": 320.867,
        "meta_arg_of_pericenter": 277.443,
        "meta_mean_anomaly": 82.3946,
        "meta_ephemeris_type": 0,
        "meta_classification_type": "U",
        "meta_norad_cat_id": 52984,
        "meta_element_set_no": 999,
        "meta_rev_at_epoch": 2685,
        "meta_bstar": 0,
        "meta_mean_motion_dot": -6.7e-07,
        "meta_mean_motion_ddot": 0,
        "tle_line1": "1 52984U 22075A   25351.97425784 -.00000067  00000+0  00000+0 0  9998",
        "tle_line2": "2 52984  64.4068 320.8670 0013632 277.4430  82.3946  2.13101861 26852"
      },
      "geometry": {
        "type": "Point",
        "coordinates": [
          -8.44617868994209,
          46.85012980289972
        ]
      }
    },
    {
      "type": "Feature",
      "properties": {
        "norad_id": 54031,
        "name": "COSMOS 2559 (707K)",
        "group": "gnss",
        "lat": -11.499919695773583,
        "lon": 146.50606081518941,
        "alt_km": 19102.316207477383,
        "timestamp": "2025-12-18T23:35:49.302558+00:00",
        "meta_object_name": "COSMOS 2559 (707K)",
        "meta_object_id": "2022-130A",
        "meta_epoch": "2025-12-18T06:18:18.086112",
        "meta_mean_motion": 2.1310139,
        "meta_eccentricity": 0.00116356,
        "meta_inclination": 64.3791,
        "meta_ra_of_asc_node": 320.9467,
        "meta_arg_of_pericenter": 192.0675,
        "meta_mean_anomaly": 167.8974,
        "meta_ephemeris_type": 0,
        "meta_classification_type": "U",
        "meta_norad_cat_id": 54031,
        "meta_element_set_no": 999,
        "meta_rev_at_epoch": 2483,
        "meta_bstar": 0,
        "meta_mean_motion_dot": -6.5e-07,
        "meta_mean_motion_ddot": 0,
        "tle_line1": "1 54031U 22130A   25352.26270933 -.00000065  00000+0  00000+0 0  9990",
        "tle_line2": "2 54031  64.3791 320.9467 0011635 192.0675 167.8974  2.13101390 24831"
      },
      "geometry": {
        "type": "Point",
        "coordinates": [
          146.50606081518941,
          -11.499919695773583
        ]
      }
    },
    {
      "type": "Feature",
      "properties": {
        "norad_id": 54377,
        "name": "COSMOS 2564 (761)",
        "group": "gnss",
        "lat": -41.945544448836415,
        "lon": 173.5763684504153,
        "alt_km": 19141.847832579595,
        "timestamp": "2025-12-18T23:35:49.302573+00:00",
        "meta_object_name": "COSMOS 2564 (761)",
        "meta_object_id": "2022-161A",
        "meta_epoch": "2025-12-18T02:33:56.818368",
        "meta_mean_motion": 2.13102096,
        "meta_eccentricity": 0.00085664,
        "meta_inclination": 64.7385,
        "meta_ra_of_asc_node": 198.7206,
        "meta_arg_of_pericenter": 204.1296,
        "meta_mean_anomaly": 155.9125,
        "meta_ephemeris_type": 0,
        "meta_classification_type": "U",
        "meta_norad_cat_id": 54377,
        "meta_element_set_no": 999,
        "meta_rev_at_epoch": 2377,
        "meta_bstar": 0,
        "meta_mean_motion_dot": 1.11e-06,
        "meta_mean_motion_ddot": 0,
        "tle_line1": "1 54377U 22161A   25352.10690762  .00000111  00000+0  00000+0 0  9997",
        "tle_line2": "2 54377  64.7385 198.7206 0008566 204.1296 155.9125  2.13102096 23774"
      },
      "geometry": {
        "type": "Point",
        "coordinates": [
          173.5763684504153,
          -41.945544448836415
        ]
      }
    }
  ]
}